NORAD_CAT_ID,OBJECT_NAME,OBJECT_TYPE,EPOCH,MEAN_MOTION,ECCENTRICITY,INCLINATION,RA_OF_ASC_NODE,ARG_OF_PERICENTER,MEAN_ANOMALY,BSTAR,MEAN_MOTION_DOT,MEAN_MOTION_DDOT,TLE_LINE0,TLE_LINE1,TLE_LINE2,SEMIMAJOR_AXIS,PERIOD,APOGEE,PERIGEE,DECAYED
51998.0,STARLINK-3618,PAYLOAD,2022-05-14 22:00:00,15.73209643,0.0003151,53.2122,171.3585,10.4518,315.4154,0.00013014,0.00017691,0.0,0 STARLINK-3618,1 51998U 22025AU  22134.91667824  .00017691  00000-0  13014-3 0  9994,2 51998  53.2122 171.3585 0003151  10.4518 315.4154 15.73209643  1305,6727.868,91.533,351.853,347.61300000000006,0.0
51998.0,STARLINK-3618,PAYLOAD,2022-05-15 14:00:01,15.73111744,0.0003432,53.212,168.0612,4.3723,139.42,0.00073833,0.00103917,0.0,0 STARLINK-3618,1 51998U 22025AU  22135.58335648  .00103917  00000-0  73833-3 0  9996,2 51998  53.2120 168.0612 0003432   4.3723 139.4200 15.73111744  1309,6728.147,91.538,352.321,347.70300000000015,0.0
51998.0,STARLINK-3618,PAYLOAD,2022-05-15 20:00:01,15.73162248,0.0003253999999999,53.2122,166.8224,4.8342,115.5392,0.00043671,0.00061028,0.0,0 STARLINK-3618,1 51998U 22025AU  22135.83334491  .00061028  00000-0  43671-3 0  9992,2 51998  53.2122 166.8224 0003254   4.8342 115.5392 15.73162248 11853,6728.003000000002,91.535,352.057,347.67900000000014,0.0
51998.0,STARLINK-3618,PAYLOAD,2022-05-15 22:00:00,15.73152196,0.0003229,53.212,166.4096,4.9913,227.6114,0.00075501,0.00106493,0.0,0 STARLINK-3618,1 51998U 22025AU  22135.91667824  .00106493  00000-0  75501-3 0  9993,2 51998  53.2120 166.4096 0003229   4.9913 227.6114 15.73152196  1308,6728.031,91.536,352.069,347.724,0.0
51998.0,STARLINK-3618,PAYLOAD,2022-05-16 12:00:00,15.73317613,0.0003484,53.2138,163.5184,2.6485,295.5744,-0.0025317,-0.00343732,0.0,0 STARLINK-3618,1 51998U 22025AU  22136.50001157 -.00343732  00000-0 -25317-2 0  9990,2 51998  53.2138 163.5184 0003484   2.6485 295.5744 15.73317613 11968,6727.56,91.526,351.769,347.081,0.0
51998.0,STARLINK-3618,PAYLOAD,2022-05-16 14:00:01,15.73413444,0.0003624,53.2138,163.1042,3.9344,46.5069,-0.005275,-0.00690057,0.0,0 STARLINK-3618,1 51998U 22025AU  22136.58334491 -.00690057  00000-0 -52750-2 0  9994,2 51998  53.2138 163.1042 0003624   3.9344  46.5069 15.73413444  1301,6727.2869999999975,91.521,351.59,346.714,0.0
51998.0,STARLINK-3618,PAYLOAD,2022-05-16 20:00:01,15.72814036,0.0003444,53.2158,161.8607,7.6059,19.6226,0.0004161,0.00057229,0.0,0 STARLINK-3618,1 51998U 22025AU  22136.83334491  .00057229  00000-0  41610-3 0  9992,2 51998  53.2158 161.8607 0003444   7.6059  19.6226 15.72814036 12016,6728.996,91.556,353.17800000000005,348.543,0.0
51998.0,STARLINK-3618,PAYLOAD,2022-05-16 22:00:00,15.72868061,0.0003345,53.2161,161.4467,9.6959,129.6486,-0.00073772,-0.00101508,0.0,0 STARLINK-3618,1 51998U 22025AU  22136.91667824 -.00101508  00000-0 -73772-3 0  9996,2 51998  53.2161 161.4467 0003345   9.6959 129.6486 15.72868061  1308,6728.842,91.552,352.958,348.456,0.0
51998.0,STARLINK-3618,PAYLOAD,2022-05-17 04:00:00,15.72920609,0.0003331,53.2175,160.2076,7.3472,108.3861,-0.0056294,-0.00718394,0.0,0 STARLINK-3618,1 51998U 22025AU  22137.16667824 -.00718394  00000-0 -56294-2 0  9990,2 51998  53.2175 160.2076 0003331   7.3472 108.3861 15.72920609 12069,6728.691999999999,91.549,352.798,348.316,0.0
51998.0,STARLINK-3618,PAYLOAD,2022-05-17 14:00:01,15.72284482,0.0002851,53.2173,158.1508,10.1738,305.8778,-0.005796,-0.00719488,0.0,0 STARLINK-3618,1 51998U 22025AU  22137.58335648 -.00719488  00000-0 -57960-2 0  9998,2 51998  53.2173 158.1508 0002851  10.1738 305.8778 15.72284482  1304,6730.507,91.586,354.29,350.45300000000015,0.0
51998.0,STARLINK-3618,PAYLOAD,2022-05-17 22:00:01,15.71771622,0.0003117,53.2174,156.5037,6.4195,37.149,-0.005895,-0.00716288,0.0,0 STARLINK-3618,1 51998U 22025AU  22137.91668981 -.00716288  00000-0 -58950-2 0  9999,2 51998  53.2174 156.5037 0003117   6.4195  37.1490 15.71771622  1307,6731.971,91.616,355.934,351.737,0.0
51998.0,STARLINK-3618,PAYLOAD,2022-05-18 04:00:01,15.71393159,0.0003469,53.2178,155.2716,357.1357,21.664,-0.006043,-0.00722154,0.0,0 STARLINK-3618,1 51998U 22025AU  22138.16668981 -.00722154  00000-0 -60430-2 0  9992,2 51998  53.2178 155.2716 0003469 357.1357  21.6640 15.71393159 12220,6733.051,91.638,357.25199999999984,352.581,0.0
51998.0,STARLINK-3618,PAYLOAD,2022-05-18 14:00:01,15.70751713,0.0002566999999999,53.217,153.2193,325.9805,250.7112,-0.0061528999999999,-0.00715861,0.0,0 STARLINK-3618,1 51998U 22025AU  22138.58334491 -.00715861  00000-0 -61529-2 0  9991,2 51998  53.2170 153.2193 0002567 325.9805 250.7112 15.70751713  1307,6734.884,91.676,358.478,355.021,0.0
51998.0,STARLINK-3618,PAYLOAD,2022-05-18 22:00:00,15.70233942,0.0004537,53.2172,151.576,302.9192,359.452,-0.0061477,-0.00701659,0.0,0 STARLINK-3618,1 51998U 22025AU  22138.91667824 -.00701659  00000-0 -61477-2 0  9999,2 51998  53.2172 151.5760 0004537 302.9192 359.4520 15.70233942  1302,6736.365,91.706,361.286,355.1740000000001,0.0
51998.0,STARLINK-3618,PAYLOAD,2022-05-19 04:00:00,15.69852954,0.0004004,53.2175,150.3468,324.4425,311.7822,-0.0062706,-0.00703963,0.0,0 STARLINK-3618,1 51998U 22025AU  22139.16667824 -.00703963  00000-0 -62706-2 0  9993,2 51998  53.2175 150.3468 0004004 324.4425 311.7822 15.69852954 12388,6737.455,91.728,362.017,356.622,0.0
51998.0,STARLINK-3618,PAYLOAD,2022-05-19 14:00:01,15.69233978,0.0002458,53.2172,148.2988,272.6035,199.3383,-0.0067578,-0.00735954,0.0,0 STARLINK-3618,1 51998U 22025AU  22139.58335648 -.00735954  00000-0 -67578-2 0  9992,2 51998  53.2172 148.2988 0002458 272.6035 199.3383 15.69233978  1301,6739.226,91.765,362.74800000000016,359.435,0.0
51998.0,STARLINK-3618,PAYLOAD,2022-05-19 20:00:01,15.68846573,0.0001156,53.2175,147.0691,309.2996,135.5147,-0.0067751,-0.00726554,0.0,0 STARLINK-3618,1 51998U 22025AU  22139.83334491 -.00726554  00000-0 -67751-2 0  9994,2 51998  53.2175 147.0691 0001156 309.2996 135.5147 15.68846573 12480,6740.3359999999975,91.787,362.98,361.421,0.0
51998.0,STARLINK-3618,PAYLOAD,2022-05-19 22:00:00,15.68715067,7.8e-05,53.2173,146.6594,335.8488,219.8699,-0.0067557,-0.00720948,0.0,0 STARLINK-3618,1 51998U 22025AU  22139.91667824 -.00720948  00000-0 -67557-2 0  9997,2 51998  53.2173 146.6594 0000780 335.8488 219.8699 15.68715067  1308,6740.712,91.795,363.103,362.052,0.0
51998.0,STARLINK-3618,PAYLOAD,2022-05-20 14:00:01,15.67694136,0.0001012,53.2172,143.3898,77.2348,284.3187,-0.0070088,-0.0071747,0.0,0 STARLINK-3618,1 51998U 22025AU  22140.58334491 -.00717470  00000-0 -70088-2 0  9992,2 51998  53.2172 143.3898 0001012  77.2348 284.3187 15.67694136  1300,6743.639,91.855,366.186,364.821,0.0
51998.0,STARLINK-3618,PAYLOAD,2022-05-20 22:00:00,15.67183324,0.0001172,53.2172,141.7541,59.343,24.2114,-0.0071579999999999,-0.00717592,0.0,0 STARLINK-3618,1 51998U 22025AU  22140.91667824 -.00717592  00000-0 -71580-2 0  9991,2 51998  53.2172 141.7541 0001172  59.3430  24.2114 15.67183324  1300,6745.104,91.885,367.759,366.17800000000005,0.0
51998.0,STARLINK-3618,PAYLOAD,2022-05-21 04:00:00,15.66801985,0.0001247,53.2174,140.5309,52.2681,2.382,-0.0072783999999999,-0.00718344,0.0,0 STARLINK-3618,1 51998U 22025AU  22141.16667824 -.00718344  00000-0 -72784-2 0  9992,2 51998  53.2174 140.5309 0001247  52.2681   2.3820 15.66801985 12698,6746.198,91.907,368.904,367.222,0.0
51998.0,STARLINK-3618,PAYLOAD,2022-05-21 06:00:00,15.66672832,0.0001398,53.2172,140.1233,54.6264,110.3133,-0.007291,-0.00716048,0.0,0 STARLINK-3618,1 51998U 22025AU  22141.25001157 -.00716048  00000-0 -72910-2 0  9993,2 51998  53.2172 140.1233 0001398  54.6264 110.3133 15.66672832  1308,6746.569,91.915,369.377,367.491,0.0
51998.0,STARLINK-3618,PAYLOAD,2022-05-21 14:00:01,15.66165257,0.0001173,53.2172,138.4917,82.2833,163.4944,-0.0074876,-0.00719957,0.0,0 STARLINK-3618,1 51998U 22025AU  22141.58335648 -.00719957  00000-0 -74876-2 0  9999,2 51998  53.2172 138.4917 0001173  82.2833 163.4944 15.66165257  1304,6748.026999999999,91.944,370.6830000000001,369.1,0.0
51998.0,STARLINK-3618,PAYLOAD,2022-05-21 22:00:00,15.65651962,0.0001104,53.2174,136.8599,70.2956,255.5797,-0.00758,-0.0071435,0.0,0 STARLINK-3618,1 51998U 22025AU  22141.91667824 -.00714350  00000-0 -75800-2 0  9990,2 51998  53.2174 136.8599 0001104  70.2956 255.5797 15.65651962  1302,6749.501,91.974,372.112,370.621,0.0
51998.0,STARLINK-3618,PAYLOAD,2022-05-22 04:00:00,15.65271821,0.0001155,53.2175,135.6395,62.8015,232.7902,-0.0077284999999999,-0.0071705,0.0,0 STARLINK-3618,1 51998U 22025AU  22142.16667824 -.00717050  00000-0 -77285-2 0  9997,2 51998  53.2175 135.6395 0001155  62.8015 232.7902 15.65271821 12852,6750.594,91.997,373.239,371.679,0.0
51998.0,STARLINK-3618,PAYLOAD,2022-05-22 14:00:01,15.64634242,0.0001144,53.2173,133.6049,69.6397,54.7168,-0.0079317,-0.007173,0.0,0 STARLINK-3618,1 51998U 22025AU  22142.58334491 -.00717300  00000-0 -79317-2 0  9990,2 51998  53.2173 133.6049 0001144  69.6397  54.7168 15.64634242  1303,6752.428000000001,92.034,375.065,373.52,0.0
51998.0,STARLINK-3618,PAYLOAD,2022-05-22 22:00:01,15.64124238,0.0001281,53.2174,131.9769,70.6542,132.0907,-0.0080937,-0.00717237,0.0,0 STARLINK-3618,1 51998U 22025AU  22142.91668981 -.00717237  00000-0 -80937-2 0  9990,2 51998  53.2174 131.9769 0001281  70.6542 132.0907 15.64124238  1300,6753.896,92.064,376.626,374.895,0.0
51998.0,STARLINK-3618,PAYLOAD,2022-05-23 04:00:00,15.63739243,0.0001375999999999,53.2174,130.7595,58.5894,112.4301,-0.0081649,-0.00712954,0.0,0 STARLINK-3618,1 51998U 22025AU  22143.16667824 -.00712954  00000-0 -81649-2 0  9995,2 51998  53.2174 130.7595 0001376  58.5894 112.4301 15.63739243 13001,6755.004,92.087,377.799,375.94,0.0
51998.0,STARLINK-3618,PAYLOAD,2022-05-23 14:00:01,15.63104055,0.0001015,53.2173,128.7295,84.7066,272.7785,-0.0084187999999999,-0.00716479,0.0,0 STARLINK-3618,1 51998U 22025AU  22143.58334491 -.00716479  00000-0 -84188-2 0  9999,2 51998  53.2173 128.7295 0001015  84.7066 272.7785 15.63104055  1309,6756.834,92.124,379.385,378.013,0.0
